{"type":"FeatureCollection","attribution":"© OpenStreetMap contributors (ODbL)","features":[{"type":"Feature","geometry":{"type":"Polygon","coordinates":[[[101.01183,13.4547],[101.0139,13.45475],[101.01446,13.45366],[101.01531,13.45399],[101.015,13.45466],[101.01336,13.45624],[101.01522,13.45666],[101.01502,13.45754],[101.01628,13.45816],[101.01636,13.45821],[101.01694,13.45873],[101.01728,13.45911],[101.01817,13.45808],[101.01817,13.45693],[101.0174,13.45608],[101.01755,13.45549],[101.02015,13.45583],[101.02041,13.45692],[101.02157,13.457],[101.02129,13.45782],[101.02193,13.45817],[101.02374,13.45797],[101.0266,13.45678],[101.02818,13.45617],[101.03035,13.45593],[101.03297,13.45631],[101.03285,13.45784],[101.03284,13.45794],[101.03266,13.46275],[101.03532,13.46259],[101.03525,13.45835],[101.03682,13.4586],[101.03704,13.45708],[101.03994,13.4576],[101.03972,13.45905],[101.04162,13.45949],[101.04176,13.45884],[101.04365,13.45915],[101.04555,13.45841],[101.04563,13.44856],[101.04563,13.4483],[101.04296,13.44124],[101.04534,13.43867],[101.04573,13.4391],[101.04577,13.43715],[101.0459,13.43535],[101.04566,13.43299],[101.04601,13.42979],[101.04507,13.42933],[101.0447,13.42986],[101.04376,13.43005],[101.04232,13.42936],[101.04257,13.42835],[101.04446,13.42427],[101.04319,13.42337],[101.04283,13.42285],[101.04521,13.41936],[101.0426,13.41718],[101.04244,13.41711],[101.04199,13.41863],[101.0404,13.41827],[101.04028,13.41847],[101.03935,13.4182],[101.03909,13.41855],[101.03853,13.41928],[101.03845,13.41964],[101.04162,13.42034],[101.04057,13.42434],[101.03981,13.42641],[101.03771,13.42492],[101.03693,13.42464],[101.02865,13.42032],[101.02924,13.41895],[101.02898,13.4188],[101.028,13.41821],[101.02711,13.41852],[101.02552,13.41776],[101.02493,13.41749],[101.02514,13.41711],[101.02519,13.41688],[101.02508,13.41659],[101.02388,13.41585],[101.02325,13.4157],[101.02187,13.41491],[101.02177,13.41398],[101.02111,13.41395],[101.02044,13.41397],[101.01997,13.4139],[101.01994,13.41418],[101.01972,13.41443],[101.01983,13.41568],[101.01951,13.41668],[101.01897,13.4175],[101.01871,13.41799],[101.01867,13.41807],[101.01836,13.41856],[101.01827,13.4187],[101.01778,13.41941],[101.01688,13.42072],[101.01662,13.42109],[101.01637,13.42118],[101.01603,13.42114],[101.01544,13.42053],[101.01532,13.42049],[101.01524,13.42049],[101.01472,13.42105],[101.01388,13.42215],[101.01366,13.4223],[101.01349,13.42222],[101.01279,13.42168],[101.01247,13.42148],[101.01222,13.42137],[101.01203,13.42129],[101.01144,13.42119],[101.01055,13.42105],[101.00826,13.42085],[101.009,13.41863],[101.00858,13.41847],[101.0078,13.41813],[101.00741,13.41779],[101.00713,13.41721],[101.00656,13.41607],[101.00649,13.41494],[101.00666,13.4142],[101.00623,13.41416],[100.99947,13.42294],[101.00268,13.42644],[101.00373,13.42635],[101.00407,13.42654],[101.00493,13.42702],[101.00689,13.42383],[101.00899,13.42566],[101.00948,13.42529],[101.01083,13.4254],[101.01137,13.42583],[101.01038,13.42696],[101.01227,13.42829],[101.01169,13.42919],[101.01079,13.42915],[101.00892,13.4298],[101.00893,13.42988],[101.00917,13.43168],[101.00941,13.43349],[101.0095,13.43418],[101.00613,13.43364],[101.00461,13.43644],[101.01081,13.43856],[101.01074,13.43903],[101.01059,13.44031],[101.01103,13.4404],[101.01188,13.44019],[101.01189,13.44032],[101.01198,13.44088],[101.01204,13.4412],[101.01193,13.44137],[101.01166,13.4414],[101.01146,13.44104],[101.01119,13.44125],[101.01107,13.44122],[101.01092,13.44115],[101.0107,13.44121],[101.01031,13.44098],[101.01016,13.44097],[101.00997,13.44092],[101.00979,13.44126],[101.00935,13.44099],[101.00866,13.44199],[101.00814,13.44167],[101.00781,13.44206],[101.00783,13.44224],[101.008,13.44257],[101.00771,13.4426],[101.00748,13.44179],[101.00642,13.44169],[101.0063,13.44194],[101.00533,13.44323],[101.00464,13.44368],[101.00523,13.44451],[101.00536,13.44531],[101.00474,13.44533],[101.00369,13.44433],[101.00328,13.44309],[101.00438,13.44271],[101.00506,13.44216],[101.00401,13.44201],[101.00362,13.4414],[101.00244,13.44094],[101.00264,13.44051],[101.00135,13.4405],[101.00126,13.44092],[101.00083,13.44088],[101.00065,13.44173],[101.00047,13.44254],[100.99987,13.44534],[100.9994,13.44719],[100.99923,13.44792],[101.00094,13.44771],[101.00096,13.44797],[101.00146,13.44793],[101.00278,13.4489],[101.00232,13.44909],[101.00274,13.44938],[101.00288,13.44964],[101.00361,13.45047],[101.00355,13.45137],[101.00442,13.45156],[101.00413,13.45287],[101.00447,13.45297],[101.00474,13.45287],[101.005,13.45299],[101.00516,13.4532],[101.00527,13.45361],[101.00594,13.45385],[101.00611,13.45419],[101.00627,13.45435],[101.00641,13.45436],[101.00646,13.45395],[101.00706,13.45381],[101.00786,13.45354],[101.00836,13.45363],[101.00871,13.45346],[101.00894,13.45389],[101.00923,13.45389],[101.00927,13.45331],[101.00971,13.45322],[101.01052,13.45347],[101.01104,13.4552],[101.01183,13.4547]]]},"properties":{"osm_id":155314274,"name":"นิคมอุตสาหกรรมอมตะซิตี้ ชลบุรี (โครงการ 2)","name_en":"Amata City Chonburi 2"}},{"type":"Feature","geometry":{"type":"Polygon","coordinates":[[[101.07827,13.45772],[101.07837,13.45772],[101.08017,13.45746],[101.08148,13.45721],[101.0821,13.45726],[101.08218,13.45729],[101.08302,13.4576],[101.08362,13.4547],[101.08265,13.45447],[101.08258,13.45446],[101.08284,13.45313],[101.08509,13.45322],[101.08512,13.45261],[101.08595,13.45241],[101.08635,13.45232],[101.08761,13.45211],[101.08769,13.45536],[101.08664,13.45907],[101.08781,13.45992],[101.08955,13.45815],[101.09036,13.45527],[101.09117,13.45494],[101.09153,13.45331],[101.0917,13.45253],[101.09285,13.4517],[101.0937,13.45109],[101.09395,13.45009],[101.09412,13.44905],[101.09437,13.44819],[101.0956,13.44826],[101.0959,13.44812],[101.0969,13.4476],[101.0977,13.44683],[101.09903,13.44574],[101.09892,13.44535],[101.10048,13.44523],[101.10144,13.44563],[101.10313,13.44448],[101.10433,13.44165],[101.10208,13.44143],[101.10113,13.44133],[101.09888,13.44103],[101.09549,13.44083],[101.09361,13.44074],[101.09195,13.44067],[101.08928,13.44055],[101.08687,13.44045],[101.08522,13.44038],[101.08398,13.44032],[101.08283,13.44026],[101.08013,13.4401],[101.0799,13.44009],[101.07953,13.44007],[101.0817,13.43631],[101.07854,13.43478],[101.07771,13.43438],[101.07734,13.4343],[101.07583,13.43409],[101.07427,13.43366],[101.07423,13.43342],[101.07421,13.4333],[101.07345,13.43291],[101.07035,13.4326],[101.07011,13.43539],[101.07119,13.43558],[101.07123,13.4373],[101.07264,13.43792],[101.07221,13.43867],[101.07219,13.4387],[101.07266,13.43938],[101.07215,13.4397],[101.07103,13.43962],[101.07102,13.43972],[101.06988,13.43967],[101.0698,13.43999],[101.06833,13.43972],[101.0683,13.44168],[101.0679,13.44154],[101.06781,13.44473],[101.06828,13.44474],[101.06821,13.4477],[101.0682,13.44847],[101.06987,13.45212],[101.06911,13.45325],[101.06942,13.45494],[101.0694,13.45533],[101.06935,13.45658],[101.07172,13.45667],[101.07266,13.4571],[101.07407,13.45265],[101.07578,13.45325],[101.07575,13.45425],[101.07656,13.45426],[101.07787,13.4543],[101.07806,13.45729],[101.07816,13.45732],[101.07816,13.45773],[101.07827,13.45772]]]},"properties":{"osm_id":504225667,"name":"นิคมอุตสาหกรรมอมตะซิตี้ ชลบุรี","name_en":"Amata City Chonburi Industrial Estate"}},{"type":"Feature","geometry":{"type":"Polygon","coordinates":[[[101.0483,13.45479],[101.05081,13.45581],[101.04906,13.45951],[101.05016,13.4596],[101.0518,13.45597],[101.05493,13.45767],[101.05723,13.45513],[101.06034,13.45304],[101.06108,13.45306],[101.05978,13.45638],[101.06426,13.45902],[101.07196,13.4571],[101.07269,13.45667],[101.074,13.45262],[101.07569,13.45321],[101.07562,13.4543],[101.07656,13.45426],[101.07665,13.45403],[101.07939,13.45421],[101.0787,13.45027],[101.08257,13.44858],[101.08226,13.44774],[101.08294,13.44615],[101.08466,13.44622],[101.08539,13.44622],[101.08485,13.44953],[101.08595,13.45241],[101.08812,13.45171],[101.08885,13.45266],[101.09165,13.45358],[101.09139,13.45516],[101.09039,13.45543],[101.09054,13.45769],[101.09266,13.4576],[101.09389,13.45577],[101.09486,13.4551],[101.09551,13.45408],[101.09716,13.45433],[101.09624,13.4559],[101.09642,13.45836],[101.10047,13.45968],[101.10025,13.45839],[101.10299,13.4584],[101.10314,13.46032],[101.10419,13.46003],[101.10345,13.45812],[101.10488,13.45844],[101.10535,13.45979],[101.10618,13.45963],[101.1055,13.458],[101.10681,13.45824],[101.10625,13.45714],[101.11024,13.45486],[101.11048,13.45452],[101.11157,13.4537],[101.11206,13.4544],[101.11422,13.44676],[101.11611,13.44598],[101.11944,13.44755],[101.12061,13.44528],[101.11995,13.44511],[101.11978,13.44314],[101.11954,13.43931],[101.11759,13.43945],[101.11765,13.44178],[101.11722,13.44208],[101.11559,13.44221],[101.1129,13.44199],[101.11346,13.44124],[101.11216,13.44076],[101.11063,13.44085],[101.10933,13.44132],[101.10875,13.44338],[101.10667,13.44394],[101.1051,13.44311],[101.10166,13.44244],[101.09712,13.44154],[101.09389,13.44127],[101.09515,13.4396],[101.09795,13.44047],[101.09793,13.43923],[101.10172,13.43984],[101.10122,13.44114],[101.10337,13.44127],[101.10293,13.43837],[101.10269,13.43677],[101.10117,13.43574],[101.10089,13.4325],[101.0973,13.43289],[101.0975,13.43106],[101.09402,13.43071],[101.09432,13.42977],[101.08957,13.43024],[101.08766,13.43246],[101.08511,13.43222],[101.08624,13.42872],[101.08292,13.42846],[101.08284,13.42464],[101.08007,13.4239],[101.07998,13.42439],[101.07879,13.42458],[101.08003,13.42639],[101.0792,13.42661],[101.07915,13.43201],[101.0777,13.43136],[101.07804,13.4323],[101.07838,13.43236],[101.07854,13.43478],[101.07584,13.43379],[101.07568,13.43333],[101.07454,13.43304],[101.07423,13.43342],[101.07041,13.43172],[101.07017,13.43236],[101.06822,13.43254],[101.07214,13.43916],[101.06616,13.4388],[101.06516,13.43634],[101.06804,13.43566],[101.06821,13.43456],[101.06657,13.43192],[101.06554,13.43066],[101.06279,13.43104],[101.06303,13.43276],[101.06561,13.43289],[101.06348,13.4345],[101.06368,13.4363],[101.06329,13.43909],[101.06004,13.43786],[101.06111,13.43603],[101.05927,13.43503],[101.05922,13.43458],[101.06173,13.43441],[101.06217,13.43333],[101.0608,13.43029],[101.05958,13.42955],[101.0584,13.43162],[101.05726,13.42969],[101.05623,13.42949],[101.05551,13.43072],[101.05503,13.43176],[101.05352,13.43126],[101.05229,13.43294],[101.04969,13.43192],[101.04885,13.43323],[101.0495,13.43446],[101.04841,13.4342],[101.047,13.43359],[101.04654,13.44578],[101.04626,13.45239],[101.04847,13.45333],[101.04793,13.45476],[101.0483,13.45479]]]},"properties":{"osm_id":1267358004,"name":"นิคมอุตสาหกรรมอมตะซิตี้ ชลบุรี (โครงการ 1)","name_en":"Amata City Chonburi 1 Industrial Estate"}}]}